ONEWEB-0249             
1 48967U 21060A   24306.88380086  .00000130  00000+0  30526-3 0  9991
2 48967  87.9117 346.7718 0001763  95.0026 265.1306 13.16594011161679
ONEWEB-0250             
1 48968U 21060B   24306.86087596  .00000180  00000+0  38138-3 0  9992
2 48968  87.9116 346.4634 0002070  70.4954 289.6406 13.25629517161731
ONEWEB-0252             
1 48970U 21060D   24306.83947670  .00000037  00000+0  62755-4 0  9994
2 48970  87.9115 346.7739 0002066 103.8251 256.3110 13.16596036161718
ONEWEB-0253             
1 48971U 21060E   24306.82838817 -.00000011  00000+0 -63284-4 0  9998
2 48971  87.9113 346.7853 0002026  90.6966 269.4397 13.16593849161649
ONEWEB-0254             
1 48972U 21060F   24306.83788838  .00000033  00000+0  53500-4 0  9999
2 48972  87.9114 346.7631 0002123  81.3340 278.8031 13.16594741161647
ONEWEB-0255             
1 48973U 21060G   24306.87588961  .00000178  00000+0  43086-3 0  9996
2 48973  87.9117 346.7902 0001943  86.7719 273.3634 13.16594476161723
ONEWEB-0256             
1 48974U 21060H   24306.82599412  .00000066  00000+0  13993-3 0  9995
2 48974  87.9118 346.8073 0001858 100.5678 259.5662 13.16592234161681
ONEWEB-0257             
1 48975U 21060J   24306.85846906  .00000043  00000+0  78848-4 0  9998
2 48975  87.9115 346.7684 0002060  96.5569 263.5797 13.16592896161649
